     2.01           GLONASS NAV DATA                        RINEX VERSION / TYPE
CCRINEXG V1.4 UX    CDDIS               23-JUL-24 21:18     PGM / RUN BY / DATE 
IGS BROADCAST EPHEMERIS FILE                                COMMENT             
teqc  2019Feb25     GPS Operator        20240723  1:02:     COMMENT             
  2024     7    23    0.931322574616D-09                    CORR TO SYSTEM TIME 
    18                                                      LEAP SECONDS        
                                                            END OF HEADER       
10 24  7 23 17 45  0.0-0.193883664906D-03-0.545696821064D-11 0.630000000000D+05
    0.214719731445D+05 0.181036281586D+01-0.000000000000D+00 0.000000000000D+00
   -0.369074121094D+04 0.113202095032D+00-0.186264514923D-08-0.700000000000D+01
   -0.132033310547D+05 0.291949653626D+01 0.186264514923D-08 0.000000000000D+00
11 24  7 23 17 45  0.0 0.172629952431D-04-0.181898940355D-11 0.630000000000D+05
    0.527952246094D+04 0.309634304047D+01 0.000000000000D+00 0.000000000000D+00
   -0.102197089844D+05 0.379239082336D+00-0.000000000000D+00 0.000000000000D+00
   -0.227536044922D+05 0.545880317688D+00 0.279396772385D-08 0.000000000000D+00
12 24  7 23 17 45  0.0 0.428007915616D-04 0.000000000000D+00 0.630000000000D+05
   -0.155522031250D+05 0.233328819275D+01 0.931322574616D-09 0.000000000000D+00
   -0.104962548828D+05 0.418211936951D+00 0.186264514923D-08-0.100000000000D+01
   -0.172547548828D+05-0.235225009918D+01 0.186264514923D-08 0.000000000000D+00
13 24  7 23 17 45  0.0-0.497149303555D-04-0.000000000000D+00 0.630000000000D+05
   -0.247014541016D+05 0.516345977783D+00 0.931322574616D-09 0.000000000000D+00
   -0.500537988281D+04 0.209143638611D+00 0.279396772385D-08-0.200000000000D+01
   -0.393928515625D+04-0.350913143158D+01 0.000000000000D+00 0.000000000000D+00
14 24  7 23 17 45  0.0 0.267261639237D-04 0.000000000000D+00 0.630000000000D+05
   -0.200275385742D+05-0.205276679993D+01 0.000000000000D+00 0.000000000000D+00
    0.480999609375D+04-0.165062904358D+00 0.186264514923D-08-0.700000000000D+01
    0.150496884766D+05-0.268431663513D+01-0.279396772385D-08 0.000000000000D+00
15 24  7 23 17 45  0.0 0.776015222073D-04 0.000000000000D+00 0.630000000000D+05
   -0.348986132812D+04-0.310363197327D+01-0.000000000000D+00 0.000000000000D+00
    0.106732148438D+05-0.416397094727D+00-0.000000000000D+00 0.000000000000D+00
    0.229279819336D+05-0.279837608337D+00-0.372529029846D-08 0.000000000000D+00
16 24  7 23 17 45  0.0 0.276267528534D-04 0.909494701773D-12 0.630000000000D+05
    0.154269116211D+05-0.235481262207D+01-0.931322574616D-09 0.000000000000D+00
    0.103857905273D+05-0.428272247314D+00-0.186264514923D-08-0.100000000000D+01
    0.174943706055D+05 0.232920074463D+01-0.186264514923D-08 0.000000000000D+00
17 24  7 23 17 45  0.0 0.107225961983D-03 0.363797880709D-11 0.630300000000D+05
   -0.176027744141D+05 0.727165222168D+00-0.186264514923D-08 0.000000000000D+00
    0.172728959961D+05-0.578462600708D+00 0.465661287308D-08 0.400000000000D+01
    0.661836181641D+04 0.344152832031D+01-0.279396772385D-08 0.000000000000D+00
18 24  7 23 17 45  0.0 0.153423286974D-03 0.909494701773D-12 0.630000000000D+05
   -0.111351079102D+05-0.694102287293D+00-0.279396772385D-08 0.000000000000D+00
    0.207039648438D+05 0.117873001099D+01 0.558793544769D-08-0.300000000000D+01
   -0.983862890625D+04 0.326571464539D+01-0.931322574616D-09 0.000000000000D+00
19 24  7 23 17 45  0.0-0.284938141704D-03-0.909494701773D-12 0.630000000000D+05
   -0.752372070312D+03-0.176941204071D+01-0.279396772385D-08 0.000000000000D+00
    0.149496958008D+05 0.221475315094D+01 0.372529029846D-08 0.300000000000D+01
   -0.206617324219D+05 0.166606235504D+01 0.931322574616D-09 0.000000000000D+00
20 24  7 23 17 45  0.0-0.116594135761D-03-0.000000000000D+00 0.630000000000D+05
    0.144855419922D+05-0.196376228332D+01-0.931322574616D-09 0.000000000000D+00
   -0.245250195312D+04 0.208324050903D+01-0.000000000000D+00 0.200000000000D+01
   -0.208570424805D+05-0.160552215576D+01 0.279396772385D-08 0.000000000000D+00
21 24  7 23 17 45  0.0-0.119959935546D-03-0.363797880709D-11 0.630000000000D+05
    0.177707246094D+05-0.778651237488D+00 0.931322574616D-09 0.000000000000D+00
   -0.168428354492D+05 0.621519088745D+00-0.372529029846D-08 0.400000000000D+01
   -0.709489697266D+04-0.343058967590D+01 0.279396772385D-08 0.000000000000D+00
22 24  7 23 17 45  0.0 0.832648947835D-04-0.636646291241D-11 0.630000000000D+05
    0.107337407227D+05 0.852597236633D+00 0.279396772385D-08 0.000000000000D+00
   -0.204407968750D+05-0.122529506683D+01-0.465661287308D-08-0.300000000000D+01
    0.108762529297D+05-0.315033531189D+01 0.931322574616D-09 0.000000000000D+00
23 24  7 23 17 45  0.0-0.127680599689D-03-0.909494701773D-12 0.630000000000D+05
   -0.210131298828D+04 0.185398769379D+01 0.279396772385D-08 0.000000000000D+00
   -0.129025581055D+05-0.236608886719D+01-0.372529029846D-08 0.300000000000D+01
    0.218914589844D+05-0.121635913849D+01-0.931322574616D-09 0.000000000000D+00
24 24  7 23 17 45  0.0-0.649066641927D-04-0.909494701773D-12 0.630000000000D+05
   -0.149420878906D+05 0.180189514160D+01 0.931322574616D-09 0.000000000000D+00
    0.331282421875D+04-0.213595581055D+01 0.000000000000D+00 0.200000000000D+01
    0.204270903320D+05 0.166320705414D+01-0.279396772385D-08 0.000000000000D+00
26 24  7 23 17 45  0.0 0.582542270422D-05 0.181898940355D-11 0.630000000000D+05
   -0.182622412109D+04 0.565091133118D+00 0.465661287308D-08 0.600000000000D+01
   -0.214620156250D+05 0.178810882568D+01-0.372529029846D-08-0.600000000000D+01
    0.136643173828D+05 0.288966941834D+01 0.000000000000D+00 0.000000000000D+00
 1 24  7 23 18 15  0.0 0.922838225961D-04 0.909494701773D-12 0.648000000000D+05
   -0.131496396484D+05-0.144703865051D+00 0.279396772385D-08 0.000000000000D+00
   -0.218498613281D+05 0.822038650513D-01-0.186264514923D-08 0.100000000000D+01
   -0.324833984375D+02 0.357330799103D+01 0.931322574616D-09 0.000000000000D+00
 2 24  7 23 18 15  0.0-0.238399952650D-04-0.000000000000D+00 0.661800000000D+05
   -0.153957666016D+05-0.117494487762D+01 0.186264514923D-08 0.100000000000D+01
   -0.127221997070D+05-0.184160423279D+01 0.000000000000D+00-0.400000000000D+01
   -0.158670234375D+05 0.260354900360D+01 0.186264514923D-08 0.000000000000D+00
 3 24  7 23 18 15  0.0 0.104302540421D-03 0.000000000000D+00 0.648000000000D+05
   -0.988345605469D+04-0.156169128418D+01-0.000000000000D+00 0.000000000000D+00
    0.443642968750D+04-0.275788402557D+01 0.372529029846D-08 0.500000000000D+01
   -0.230505039062D+05 0.133143424988D+00 0.186264514923D-08 0.000000000000D+00
 4 24  7 23 18 15  0.0 0.246544368565D-03 0.181898940355D-11 0.648000000000D+05
    0.940399414062D+03-0.104207992554D+01-0.279396772385D-08 0.000000000000D+00
    0.185000488281D+05-0.217125320435D+01 0.465661287308D-08 0.600000000000D+01
   -0.175030317383D+05-0.234850311279D+01 0.000000000000D+00 0.000000000000D+00
 5 24  7 23 18 15  0.0 0.134960748255D-03 0.000000000000D+00 0.648000000000D+05
    0.110992607422D+05 0.870990753174D-02-0.372529029846D-08 0.000000000000D+00
    0.228106445312D+05-0.404603958130D+00 0.279396772385D-08 0.100000000000D+01
   -0.255123925781D+04-0.356944465637D+01-0.931322574616D-09 0.000000000000D+00
 6 24  7 23 18 15  0.0-0.173069536686D-03-0.909494701773D-12 0.659700000000D+05
    0.158457314453D+05 0.128626728058D+01-0.186264514923D-08 0.000000000000D+00
    0.108416728516D+05 0.191023445129D+01-0.931322574616D-09-0.400000000000D+01
    0.167710468750D+05-0.244951057434D+01-0.186264514923D-08 0.000000000000D+00
 7 24  7 23 18 15  0.0 0.872965902090D-04 0.909494701773D-12 0.648000000000D+05
    0.948710791016D+04 0.154387855530D+01 0.000000000000D+00 0.000000000000D+00
   -0.521386279297D+04 0.275506591797D+01-0.372529029846D-08 0.500000000000D+01
    0.231344848633D+05-0.167808532715D-01-0.931322574616D-09 0.000000000000D+00
 8 24  7 23 18 15  0.0-0.610016286373D-05 0.000000000000D+00 0.648000000000D+05
   -0.115885498047D+04 0.104747009277D+01 0.186264514923D-08 0.000000000000D+00
   -0.187002241211D+05 0.212678909302D+01-0.465661287308D-08 0.600000000000D+01
    0.173845810547D+05 0.236207199097D+01-0.000000000000D+00 0.000000000000D+00
 9 24  7 23 18 15  0.0 0.199346803129D-03 0.272848410532D-11 0.648000000000D+05
    0.242285429688D+05-0.102180004120D+01-0.931322574616D-09 0.000000000000D+00
    0.316773193359D+04-0.797243118286D-01-0.279396772385D-08-0.200000000000D+01
    0.749555517578D+04 0.333913707733D+01-0.000000000000D+00 0.000000000000D+00
10 24  7 23 18 15  0.0-0.193892978132D-03-0.545696821064D-11 0.648000000000D+05
    0.240499418945D+05 0.102832221985D+01-0.931322574616D-09 0.000000000000D+00
   -0.374447607422D+04-0.138257980347D+00-0.279396772385D-08-0.700000000000D+01
   -0.750387451172D+04 0.337198829651D+01 0.931322574616D-09 0.000000000000D+00
11 24  7 23 18 15  0.0 0.172611325979D-04-0.181898940355D-11 0.648000000000D+05
    0.106901972656D+05 0.286526966095D+01-0.000000000000D+00 0.000000000000D+00
   -0.995120751953D+04-0.723028182983D-01-0.931322574616D-09 0.000000000000D+00
   -0.209031459961D+05 0.149675559998D+01 0.279396772385D-08 0.000000000000D+00
12 24  7 23 18 15  0.0 0.428007915616D-04 0.000000000000D+00 0.656700000000D+05
   -0.108501206055D+05 0.284982013702D+01 0.931322574616D-09 0.000000000000D+00
   -0.100277314453D+05 0.770969390869D-01 0.931322574616D-09-0.100000000000D+01
   -0.207654501953D+05-0.152305889130D+01 0.279396772385D-08 0.000000000000D+00
14 24  7 23 18 15  0.0 0.267261639237D-04 0.000000000000D+00 0.648000000000D+05
   -0.230942377930D+05-0.132471752167D+01 0.931322574616D-09 0.000000000000D+00
    0.479987841797D+04 0.121895790100D+00 0.279396772385D-08-0.700000000000D+01
    0.969848437500D+04-0.322291660309D+01-0.186264514923D-08 0.000000000000D+00
